{"fetched_at":"2026-03-30T06:02:59Z","count":15439,"tles":[{"name":"STARLINK-1502","line1":"1 45764U 20038AL  26087.78942891  .00078815  00000+0  13810-2 0  9993","line2":"2 45764  53.0511 114.5886 0005983  50.6428 309.5109 15.49899906319590","category":"Starlink"}]}